
    {
        "ARG_OF_PERICENTER": 21.9281,
        "BSTAR": 0.00052688,
        "CLASSIFICATION_TYPE": "U",
        "ECCENTRICITY": 0.0005671,
        "ELEMENT_SET_NO": 999,
        "EPHEMERIS_TYPE": 0,
        "EPOCH": "2026-05-05T08:25:09.215040",
        "INCLINATION": 51.626,
        "MEAN_ANOMALY": 338.1954,
        "MEAN_MOTION": 15.5970183,
        "MEAN_MOTION_DDOT": 0,
        "MEAN_MOTION_DOT": 0.00042676,
        "NORAD_CAT_ID": 66906,
        "OBJECT_ID": "1998-067XS",
        "OBJECT_NAME": "DUPLEX",
        "RA_OF_ASC_NODE": 145.2669,
        "REV_AT_EPOCH": 2396
    },
    {
        "ARG_OF_PERICENTER": 40.0168,
        "BSTAR": 0.0018608,
        "CLASSIFICATION_TYPE": "U",
        "ECCENTRICITY": 0.0005204,
        "ELEMENT_SET_NO": 999,
        "EPHEMERIS_TYPE": 0,
        "EPOCH": "2026-05-05T07:41:54.922848",
        "INCLINATION": 51.6095,
        "MEAN_ANOMALY": 320.123,
        "MEAN_MOTION": 16.12953473,
        "MEAN_MOTION_DDOT": 0.0041477,
        "MEAN_MOTION_DOT": 0.02059305,
        "NORAD_CAT_ID": 66907,
        "OBJECT_ID": "1998-067XT",
        "OBJECT_NAME": "ISS OBJECT XT",
        "RA_OF_ASC_NODE": 130.6199,
        "REV_AT_EPOCH": 2415
    },
    {
        "ARG_OF_PERICENTER": 42.3055,
        "BSTAR": 0.0019429,
        "CLASSIFICATION_TYPE": "U",
        "ECCENTRICITY": 0.0004849,
        "ELEMENT_SET_NO": 999,
        "EPHEMERIS_TYPE": 0,
        "EPOCH": "2026-05-05T05:49:12.082080",
        "INCLINATION": 51.6099,
        "MEAN_ANOMALY": 317.8334,
        "MEAN_MOTION": 16.13678354,
        "MEAN_MOTION_DDOT": 0.0054017,
        "MEAN_MOTION_DOT": 0.02211373,
        "NORAD_CAT_ID": 66908,
        "OBJECT_ID": "1998-067XU",
        "OBJECT_NAME": "ISS OBJECT XU",
        "RA_OF_ASC_NODE": 130.8382,
        "REV_AT_EPOCH": 2414
    },
    {
        "ARG_OF_PERICENTER": 38.6737,
        "BSTAR": 0.0017345,
        "CLASSIFICATION_TYPE": "U",
        "ECCENTRICITY": 0.000849,
        "ELEMENT_SET_NO": 999,
        "EPHEMERIS_TYPE": 0,
        "EPOCH": "2026-05-05T05:53:10.907232",
        "INCLINATION": 51.6118,
        "MEAN_ANOMALY": 321.4878,
        "MEAN_MOTION": 15.98082238,
        "MEAN_MOTION_DDOT": 0.00031283,
        "MEAN_MOTION_DOT": 0.008168,
        "NORAD_CAT_ID": 66910,
        "OBJECT_ID": "1998-067XW",
        "OBJECT_NAME": "ISS OBJECT XW",
        "RA_OF_ASC_NODE": 132.3911,
        "REV_AT_EPOCH": 2412
    },
    {
        "ARG_OF_PERICENTER": 33.908,
        "BSTAR": 0.0012254,
        "CLASSIFICATION_TYPE": "U",
        "ECCENTRICITY": 0.0007975,
        "ELEMENT_SET_NO": 999,
        "EPHEMERIS_TYPE": 0,
        "EPOCH": "2026-05-05T10:10:49.310112",
        "INCLINATION": 51.6219,
        "MEAN_ANOMALY": 326.2429,
        "MEAN_MOTION": 15.77046263,
        "MEAN_MOTION_DDOT": 0,
        "MEAN_MOTION_DOT": 0.00208491,
        "NORAD_CAT_ID": 66912,
        "OBJECT_ID": "1998-067XY",
        "OBJECT_NAME": "ISS OBJECT XY",
        "RA_OF_ASC_NODE": 137.4542,
        "REV_AT_EPOCH": 2406
    },
    {
        "ARG_OF_PERICENTER": 39.4427,
        "BSTAR": 0.00073713,
        "CLASSIFICATION_TYPE": "U",
        "ECCENTRICITY": 0.0012765,
        "ELEMENT_SET_NO": 999,
        "EPHEMERIS_TYPE": 0,
        "EPOCH": "2026-05-05T10:34:01.545024",
        "INCLINATION": 51.6273,
        "MEAN_ANOMALY": 320.7491,
        "MEAN_MOTION": 15.56406096,
        "MEAN_MOTION_DDOT": 0,
        "MEAN_MOTION_DOT": 0.00053102,
        "NORAD_CAT_ID": 67683,
        "OBJECT_ID": "1998-067XZ",
        "OBJECT_NAME": "KNACKSAT-2",
        "RA_OF_ASC_NODE": 148.8684,
        "REV_AT_EPOCH": 1361
    },
    {
        "ARG_OF_PERICENTER": 34.6814,
        "BSTAR": 0.0014798,
        "CLASSIFICATION_TYPE": "U",
        "ECCENTRICITY": 0.0016303,
        "ELEMENT_SET_NO": 999,
        "EPHEMERIS_TYPE": 0,
        "EPOCH": "2026-05-05T08:27:20.560320",
        "INCLINATION": 51.6247,
        "MEAN_ANOMALY": 325.5241,
        "MEAN_MOTION": 15.64682252,
        "MEAN_MOTION_DDOT": 0,
        "MEAN_MOTION_DOT": 0.00149495,
        "NORAD_CAT_ID": 67684,
        "OBJECT_ID": "1998-067YA",
        "OBJECT_NAME": "CORAL",
        "RA_OF_ASC_NODE": 146.7723,
        "REV_AT_EPOCH": 1363
    },
    {
        "ARG_OF_PERICENTER": 36.9104,
        "BSTAR": 0.00082427,
        "CLASSIFICATION_TYPE": "U",
        "ECCENTRICITY": 0.0014597,
        "ELEMENT_SET_NO": 999,
        "EPHEMERIS_TYPE": 0,
        "EPOCH": "2026-05-05T08:21:25.643808",
        "INCLINATION": 51.627,
        "MEAN_ANOMALY": 323.2889,
        "MEAN_MOTION": 15.57333778,
        "MEAN_MOTION_DDOT": 0,
        "MEAN_MOTION_DOT": 0.0006168,
        "NORAD_CAT_ID": 67685,
        "OBJECT_ID": "1998-067YB",
        "OBJECT_NAME": "GXIBA-1",
        "RA_OF_ASC_NODE": 149.0031,
        "REV_AT_EPOCH": 1360
    },
    {
        "ARG_OF_PERICENTER": 19.7693,
        "BSTAR": 0.001003,
        "CLASSIFICATION_TYPE": "U",
        "ECCENTRICITY": 0.0011621,
        "ELEMENT_SET_NO": 999,
        "EPHEMERIS_TYPE": 0,
        "EPOCH": "2026-05-05T07:11:37.899744",
        "INCLINATION": 51.626,
        "MEAN_ANOMALY": 340.3747,
        "MEAN_MOTION": 15.59185957,
        "MEAN_MOTION_DDOT": 0,
        "MEAN_MOTION_DOT": 0.0008068,
        "NORAD_CAT_ID": 67686,
        "OBJECT_ID": "1998-067YC",
        "OBJECT_NAME": "UITMSAT-2",
        "RA_OF_ASC_NODE": 148.6818,
        "REV_AT_EPOCH": 1360
    },
    {
        "ARG_OF_PERICENTER": 20.5711,
        "BSTAR": 0.00079485,
        "CLASSIFICATION_TYPE": "U",
        "ECCENTRICITY": 0.0010962,
        "ELEMENT_SET_NO": 999,
        "EPHEMERIS_TYPE": 0,
        "EPOCH": "2026-05-05T08:39:25.586784",
        "INCLINATION": 51.628,
        "MEAN_ANOMALY": 339.572,
        "MEAN_MOTION": 15.56952501,
        "MEAN_MOTION_DDOT": 0,
        "MEAN_MOTION_DOT": 0.00058469,
        "NORAD_CAT_ID": 67687,
        "OBJECT_ID": "1998-067YD",
        "OBJECT_NAME": "HMU-SAT2",
        "RA_OF_ASC_NODE": 149.0927,
        "REV_AT_EPOCH": 1352
    },
    {
        "ARG_OF_PERICENTER": 18.562,
        "BSTAR": 0.00068544678,
        "CLASSIFICATION_TYPE": "U",
        "ECCENTRICITY": 0.00113037,
        "ELEMENT_SET_NO": 999,
        "EPHEMERIS_TYPE": 0,
        "EPOCH": "2026-05-05T01:33:59.032512",
        "INCLINATION": 51.628,
        "MEAN_ANOMALY": 341.5783,
        "MEAN_MOTION": 15.58303932,
        "MEAN_MOTION_DDOT": 0,
        "MEAN_MOTION_DOT": 0.00052963,
        "NORAD_CAT_ID": 67688,
        "OBJECT_ID": "1998-067YE",
        "OBJECT_NAME": "LEOPARD",
        "RA_OF_ASC_NODE": 150.1195,
        "REV_AT_EPOCH": 1348
    },
    {
        "ARG_OF_PERICENTER": 26.0888,
        "BSTAR": 0.00013737,
        "CLASSIFICATION_TYPE": "U",
        "ECCENTRICITY": 0.0007383,
        "ELEMENT_SET_NO": 999,
        "EPHEMERIS_TYPE": 0,
        "EPOCH": "2026-05-05T11:45:31.649760",
        "INCLINATION": 51.6304,
        "MEAN_ANOMALY": 334.0471,
        "MEAN_MOTION": 15.49105068,
        "MEAN_MOTION_DDOT": 0,
        "MEAN_MOTION_DOT": 7.156e-05,
        "NORAD_CAT_ID": 67796,
        "OBJECT_ID": "2026-031A",
        "OBJECT_NAME": "CREW DRAGON 12",
        "RA_OF_ASC_NODE": 151.4493,
        "REV_AT_EPOCH": 56539
    },
    {
        "ARG_OF_PERICENTER": 26.0888,
        "BSTAR": 0.00013737,
        "CLASSIFICATION_TYPE": "U",
        "ECCENTRICITY": 0.0007383,
        "ELEMENT_SET_NO": 999,
        "EPHEMERIS_TYPE": 0,
        "EPOCH": "2026-05-05T11:45:31.649760",
        "INCLINATION": 51.6304,
        "MEAN_ANOMALY": 334.0471,
        "MEAN_MOTION": 15.49105068,
        "MEAN_MOTION_DDOT": 0,
        "MEAN_MOTION_DOT": 7.156e-05,
        "NORAD_CAT_ID": 68319,
        "OBJECT_ID": "2026-058A",
        "OBJECT_NAME": "PROGRESS-MS 33",
        "RA_OF_ASC_NODE": 151.4493,
        "REV_AT_EPOCH": 690
    }