DUPLEX                  
1 66906U 98067XS  26125.35080110  .00042676  00000+0  52688-3 0  9997
2 66906  51.6260 145.2669 0005671  21.9281 338.1954 15.59701830 23966
ISS OBJECT XT           
1 66907U 98067XT  26125.32077457  .02059305  41477-2  18608-2 0  9993
2 66907  51.6095 130.6199 0005204  40.0168 320.1230 16.12953473 24159
ISS OBJECT XU           
1 66908U 98067XU  26125.24250095  .02211373  54017-2  19429-2 0  9997
2 66908  51.6099 130.8382 0004849  42.3055 317.8334 16.13678354 24144
ISS OBJECT XW           
1 66910U 98067XW  26125.24526513  .00816800  31283-3  17345-2 0  9991
2 66910  51.6118 132.3911 0008490  38.6737 321.4878 15.98082238 24129
ISS OBJECT XY           
1 66912U 98067XY  26125.42418183  .00208491  00000+0  12254-2 0  9990
2 66912  51.6219 137.4542 0007975  33.9080 326.2429 15.77046263 24068
KNACKSAT-2              
1 67683U 98067XZ  26125.44029566  .00053102  00000+0  73713-3 0  9996
2 67683  51.6273 148.8684 0012765  39.4427 320.7491 15.56406096 13614
CORAL                   
1 67684U 98067YA  26125.35232130  .00149495  00000+0  14798-2 0  9998
2 67684  51.6247 146.7723 0016303  34.6814 325.5241 15.64682252 13633
GXIBA-1                 
1 67685U 98067YB  26125.34821347  .00061680  00000+0  82427-3 0  9996
2 67685  51.6270 149.0031 0014597  36.9104 323.2889 15.57333778 13606
UITMSAT-2               
1 67686U 98067YC  26125.29974421  .00080680  00000+0  10030-2 0  9994
2 67686  51.6260 148.6818 0011621  19.7693 340.3747 15.59185957 13600
HMU-SAT2                
1 67687U 98067YD  26125.36071281  .00058469  00000+0  79485-3 0  9995
2 67687  51.6280 149.0927 0010962  20.5711 339.5720 15.56952501 13523
LEOPARD                 
1 67688U 98067YE  26125.06526658  .00052963  00000+0  68545-3 0  9994
2 67688  51.6280 150.1195 0011303  18.5620 341.5783 15.58303932 13487
CREW DRAGON 12          
1 67796U 26031A   26125.48994965  .00007156  00000+0  13737-3 0  9999
2 67796  51.6304 151.4493 0007383  26.0888 334.0471 15.49105068565395
PROGRESS-MS 33          
1 68319U 26058A   26125.48994965  .00007156  00000+0  13737-3 0  9990
2 68319  51.6304 151.4493 0007383  26.0888 334.0471 15.49105068  6904
